{"fetched_at":"2026-03-30T06:02:59Z","count":15439,"tles":[{"name":"STARLINK-35991","line1":"1 66861U 25281P   26087.68264837  .00031009  00000+0  11306-2 0  9997","line2":"2 66861  42.9977 235.9141 0000858 125.1619 234.9313 15.27611279 19093","category":"Starlink"}]}